STARLINK-1008           
1 44714U 19074B   26160.57187688  .00063933  00000+0  11550-2 0  9993
2 44714  53.1510 105.1676 0002691  96.3017 263.8298 15.49137321363036
STARLINK-1012           
1 44718U 19074F   26160.82756528  .00085461  00000+0  15178-2 0  9990
2 44718  53.1553 104.2272 0002409  99.1058 261.0224 15.49496299363066
STARLINK-1017           
1 44723U 19074L   26160.11493654  .00042252  00000+0  13744-2 0  9994
2 44723  53.0489 107.1352 0005152  45.2608 314.8811 15.31481714362943
STARLINK-1020           
1 44725U 19074N   26160.20036052  .00076053  00000+0  11265-2 0  9993
2 44725  53.1564 131.2313 0004276  67.7204 292.4260 15.54607412362615
STARLINK-1036           
1 44741U 19074AE  26160.12812279  .00049698  00000+0  41913-3 0  9994
2 44741  53.0415 100.5238 0002813  18.8357 341.2763 15.69323811363035
STARLINK-1039           
1 44744U 19074AH  26160.66994876  .00044524  00000+0  15763-2 0  9996
2 44744  53.0571 149.9756 0004191  46.6363 313.4985 15.28715592362391
STARLINK-1042           
1 44747U 19074AL  26160.86124159  .00024943  00000+0  38130-3 0  9997
2 44747  53.0437  11.0221 0002875 102.1760 257.9572 15.54270374364385
STARLINK-1043           
1 44748U 19074AM  26160.55221131  .00035114  00000+0  38909-3 0  9998
2 44748  53.0477 108.7696 0001069  84.2143 275.8992 15.62658415362961
STARLINK-1046           
1 44751U 19074AQ  26160.20827412  .00041160  00000+0  60861-3 0  9998
2 44751  53.0471 132.1194 0007363  60.9449 299.2298 15.54899553362607
STARLINK-1047           
1 44752U 19074AR  26160.06035628  .00008267  00000+0  25421-3 0  9997
2 44752  53.0686  78.5103 0003778 113.1092 247.0308 15.34565266363366
STARLINK-1048           
1 44753U 19074AS  26160.50519895  .00049383  00000+0  44867-3 0  9999
2 44753  53.0443  80.6900 0006764  61.7004 298.4693 15.67481869363343
STARLINK-1063           
1 44768U 19074BH  26160.64915831  .00060974  00000+0  11047-2 0  9992
2 44768  53.1545 145.8243 0002467  58.7820 301.3430 15.49077667362489
STARLINK-1067           
1 44771U 19074BL  26160.10747319  .00078616  00000+0  47633-3 0  9994
2 44771  53.0419 114.3646 0001897 106.0882 254.0346 15.76893815362842
STARLINK-1068           
1 44772U 19074BM  26160.81501642  .00079697  00000+0  51052-3 0  9990
2 44772  53.0413  84.5478 0002092 135.0872 225.0316 15.75621000363319
STARLINK-1114           
1 44927U 20001P   26160.77968896  .00043385  00000+0  42956-3 0  9995
2 44927  53.0402 241.9053 0004370   4.5284 355.5769 15.65414290354451
STARLINK-1123           
1 44930U 20001S   26160.82765175  .00088103  00000+0  11296-2 0  9999
2 44930  53.1438 268.7865 0006180 317.9273  42.1264 15.58424359354091
STARLINK-1094           
1 44941U 20001AD  26160.79094416  .00040070  00000+0  59926-3 0  9994
2 44941  53.1521 244.0344 0006716 342.5302  17.5478 15.54608001354443
STARLINK-1122           
1 44949U 20001AM  26160.48097007  .00069715  00000+0  10368-2 0  9990
2 44949  53.1551 246.1440 0006012 340.6534  19.4248 15.54525200354387
STARLINK-1080           
1 44961U 20001AZ  26160.40242933  .00043977  00000+0  39546-3 0  9998
2 44961  53.0442 204.1106 0002842  34.3986 325.7213 15.67808455354955
STARLINK-1090           
1 44968U 20001BG  26160.79376433  .00067983  00000+0  11579-2 0  9998
2 44968  53.1489 232.4090 0005046 350.0274  10.0635 15.50772380354600
STARLINK-1132           
1 45044U 20006A   26160.76275426  .00083679  00000+0  11803-2 0  9996
2 45044  53.1503 173.5270 0004195  26.6203 333.5023 15.55897756351207
STARLINK-1131           
1 45047U 20006D   26160.39487274  .00064287  00000+0  10280-2 0  9996
2 45047  53.1565 208.1770 0005737   4.7150 355.3913 15.52559409350687
STARLINK-1134           
1 45048U 20006E   26160.69091465  .00126021  00000+0  15855-2 0  9991
2 45048  53.0237 156.5003 0007955  66.3774 293.8072 15.58738645351419
STARLINK-1156           
1 45054U 20006L   26160.42785490  .00035331  00000+0  10262-2 0  9997
2 45054  53.1564 213.8237 0004563 355.7368   4.3596 15.35171478350608
STARLINK-1166           
1 45060U 20006S   26160.75869171  .00091357  00000+0  11085-2 0  9993
2 45060  53.0450 189.1731 0006096  14.5919 345.5268 15.59862998350962
STARLINK-1169           
1 45061U 20006T   26160.45866420  .00048533  00000+0  12566-2 0  9998
2 45061  53.1550 212.2246 0005818 336.6250  23.4489 15.38590491350635
STARLINK-1171           
1 45062U 20006U   26160.69047491  .00067470  00000+0  45292-3 0  9998
2 45062  53.0387 155.2001 0003517  13.1264 346.9846 15.74604957351436
STARLINK-1133           
1 45064U 20006W   26160.78967708  .00046220  00000+0  13371-2 0  9994
2 45064  53.1572 188.9109 0005541  13.9661 346.1494 15.35169520350995
STARLINK-1167           
1 45071U 20006AD  26160.78909172  .00059206  00000+0  15757-2 0  9991
2 45071  53.1562 187.9446 0004101 344.8132  15.2749 15.37664064351000
STARLINK-1168           
1 45072U 20006AE  26160.37860059  .00044851  00000+0  12930-2 0  9997
2 45072  53.1559 191.0290 0004931  12.4853 347.6271 15.35293470350928
