OBJECT_NAME,OBJECT_ID,EPOCH,MEAN_MOTION,ECCENTRICITY,INCLINATION,RA_OF_ASC_NODE,ARG_OF_PERICENTER,MEAN_ANOMALY,EPHEMERIS_TYPE,CLASSIFICATION_TYPE,NORAD_CAT_ID,ELEMENT_SET_NO,REV_AT_EPOCH,BSTAR,MEAN_MOTION_DOT,MEAN_MOTION_DDOT
STARLINK-1008,2019-074B,2026-06-09T13:43:30.162432,15.49137321,.00026916,53.1510,105.1676,96.3017,263.8298,0,U,44714,999,36303,.11550215E-2,.63933E-3,0
STARLINK-1012,2019-074F,2026-06-09T19:51:41.640192,15.49496299,.00024095,53.1553,104.2272,99.1058,261.0224,0,U,44718,999,36306,.15177916E-2,.85461E-3,0
STARLINK-1017,2019-074L,2026-06-09T02:45:30.517056,15.31481714,.00051523,53.0489,107.1352,45.2608,314.8811,0,U,44723,999,36294,.13744362E-2,.42252E-3,0
STARLINK-1020,2019-074N,2026-06-09T04:48:31.148928,15.54607412,.0004276,53.1564,131.2313,67.7204,292.4260,0,U,44725,999,36261,.11265115E-2,.76053E-3,0
STARLINK-1036,2019-074AE,2026-06-09T03:04:29.809056,15.69323811,.0002813,53.0415,100.5238,18.8357,341.2763,0,U,44741,999,36303,.41913477E-3,.49698E-3,0
STARLINK-1039,2019-074AH,2026-06-09T16:04:43.572864,15.28715592,.00041914,53.0571,149.9756,46.6363,313.4985,0,U,44744,999,36239,.15763053E-2,.44524E-3,0
STARLINK-1042,2019-074AL,2026-06-09T20:40:11.273376,15.54270374,.00028759,53.0437,11.0221,102.1760,257.9572,0,U,44747,999,36438,.38130287E-3,.24943E-3,0
STARLINK-1043,2019-074AM,2026-06-09T13:15:11.057184,15.62658415,.00010693,53.0477,108.7696,84.2143,275.8992,0,U,44748,999,36296,.38909287E-3,.35114E-3,0
STARLINK-1046,2019-074AQ,2026-06-09T04:59:54.883968,15.54899553,.00073635,53.0471,132.1194,60.9449,299.2298,0,U,44751,999,36260,.60861086E-3,.4116E-3,0
STARLINK-1047,2019-074AR,2026-06-09T01:26:54.782592,15.34565266,.00037785,53.0686,78.5103,113.1092,247.0308,0,U,44752,999,36336,.25421019E-3,.8267E-4,0
STARLINK-1048,2019-074AS,2026-06-09T12:07:29.189280,15.67481869,.00067643,53.0443,80.6900,61.7004,298.4693,0,U,44753,999,36334,.44867448E-3,.49383E-3,0
STARLINK-1063,2019-074BH,2026-06-09T15:34:47.277984,15.49077667,.00024677,53.1545,145.8243,58.7820,301.3430,0,U,44768,999,36248,.11046819E-2,.60974E-3,0
STARLINK-1067,2019-074BL,2026-06-09T02:34:45.683616,15.76893815,.0001897,53.0419,114.3646,106.0882,254.0346,0,U,44771,999,36284,.47633283E-3,.78616E-3,0
STARLINK-1068,2019-074BM,2026-06-09T19:33:37.418688,15.75621000,.00020929,53.0413,84.5478,135.0872,225.0316,0,U,44772,999,36331,.5105191E-3,.79697E-3,0
STARLINK-1114,2020-001P,2026-06-09T18:42:45.126144,15.65414290,.00043707,53.0402,241.9053,4.5284,355.5769,0,U,44927,999,35445,.42955763E-3,.43385E-3,0
STARLINK-1123,2020-001S,2026-06-09T19:51:49.111200,15.58424359,.00061805,53.1438,268.7865,317.9273,42.1264,0,U,44930,999,35409,.11296262E-2,.88103E-3,0
STARLINK-1094,2020-001AD,2026-06-09T18:58:57.575424,15.54608001,.0006716,53.1521,244.0344,342.5302,17.5478,0,U,44941,999,35444,.59926482E-3,.4007E-3,0
STARLINK-1122,2020-001AM,2026-06-09T11:32:35.814048,15.54525200,.0006012,53.1551,246.1440,340.6534,19.4248,0,U,44949,999,35438,.10368086E-2,.69715E-3,0
STARLINK-1080,2020-001AZ,2026-06-09T09:39:29.894112,15.67808455,.00028429,53.0442,204.1106,34.3986,325.7213,0,U,44961,999,35495,.39546298E-3,.43977E-3,0
STARLINK-1090,2020-001BG,2026-06-09T19:03:01.238112,15.50772380,.00050467,53.1489,232.4090,350.0274,10.0635,0,U,44968,999,35460,.11579271E-2,.67983E-3,0
STARLINK-1132,2020-006A,2026-06-09T18:18:21.968064,15.55897756,.00041954,53.1503,173.5270,26.6203,333.5023,0,U,45044,999,35120,.11803291E-2,.83679E-3,0
STARLINK-1131,2020-006D,2026-06-09T09:28:37.004736,15.52559409,.00057375,53.1565,208.1770,4.7150,355.3913,0,U,45047,999,35068,.10280194E-2,.64287E-3,0
STARLINK-1134,2020-006E,2026-06-09T16:34:55.025760,15.58738645,.00079554,53.0237,156.5003,66.3774,293.8072,0,U,45048,999,35141,.15855363E-2,.126021E-2,0
STARLINK-1156,2020-006L,2026-06-09T10:16:06.663360,15.35171478,.00045637,53.1564,213.8237,355.7368,4.3596,0,U,45054,999,35060,.1026207E-2,.35331E-3,0
STARLINK-1166,2020-006S,2026-06-09T18:12:30.963744,15.59862998,.00060962,53.0450,189.1731,14.5919,345.5268,0,U,45060,999,35096,.11084943E-2,.91357E-3,0
STARLINK-1169,2020-006T,2026-06-09T11:00:28.586880,15.38590491,.0005818,53.1550,212.2246,336.6250,23.4489,0,U,45061,999,35063,.12566252E-2,.48533E-3,0
STARLINK-1171,2020-006U,2026-06-09T16:34:17.032224,15.74604957,.00035176,53.0387,155.2001,13.1264,346.9846,0,U,45062,999,35143,.4529208E-3,.6747E-3,0
STARLINK-1133,2020-006W,2026-06-09T18:57:08.099712,15.35169520,.00055413,53.1572,188.9109,13.9661,346.1494,0,U,45064,999,35099,.13371067E-2,.4622E-3,0
STARLINK-1167,2020-006AD,2026-06-09T18:56:17.524608,15.37664064,.00041014,53.1562,187.9446,344.8132,15.2749,0,U,45071,999,35100,.15756586E-2,.59206E-3,0
STARLINK-1168,2020-006AE,2026-06-09T09:05:11.090976,15.35293470,.0004931,53.1559,191.0290,12.4853,347.6271,0,U,45072,999,35092,.12930379E-2,.44851E-3,0
